const data = [
"1 26102U 00014A   22076.86777743  .00094465  00000+0  54003-3 0  9994",
"2 26102  97.4585   5.0965 0004825  42.7101 317.4430 15.78583709224159",
"1 28492U 04049A   22077.24391154  .00001383  00000+0  13932-3 0  9994",
"2 28492  98.2264  16.0911 0014862  27.0845 333.1149 14.92869562921517",
"1 30777U 07006F   22076.73325041  .00029515  00000+0  55592-3 0  9999",
"2 30777  35.4215 177.2223 0002531 241.0740 118.9736 15.47545732834912",
"1 33751U 09008C   22076.62397793  .00000086  00000+0  47411-3 0  9992",
"2 33751   2.0711 342.2563 5417218  72.8048 337.5614  4.58828460190592",
"1 33752U 09008D   22076.24642881  .00004794  00000+0  13566-2 0  9995",
"2 33752   1.7604 170.6800 6875075  46.1607 353.1230  2.80155993122480",
"1 39088U 13009C   22077.16899864  .00000057  00000+0  35703-4 0  9993",
"2 39088  98.4317 275.1951 0011297 182.5433 177.5696 14.34274435474056",
];

export default data;
